OBJECT_NAME,OBJECT_ID,EPOCH,MEAN_MOTION,ECCENTRICITY,INCLINATION,RA_OF_ASC_NODE,ARG_OF_PERICENTER,MEAN_ANOMALY,EPHEMERIS_TYPE,CLASSIFICATION_TYPE,NORAD_CAT_ID,ELEMENT_SET_NO,REV_AT_EPOCH,BSTAR,MEAN_MOTION_DOT,MEAN_MOTION_DDOT
STARLINK-32614,2024-249V,2026-06-15T04:35:48.528960,15.27584216,.00041798,42.9970,131.3564,286.3531,73.6861,0,U,62428,999,8263,.88311842E-3,.24126E-3,0
STARLINK-32418,2024-249W,2026-06-15T13:39:41.922144,15.27605388,.00007079,43.0035,121.2424,277.4794,82.5978,0,U,62429,999,8278,.6079718E-3,.16518E-3,0
STARLINK-32702,2024-251A,2026-06-15T21:21:42.793632,15.30197556,.00011521,53.1571,236.3138,99.2838,260.8293,0,U,62432,999,8302,.5447787E-3,.15809E-3,0
STARLINK-32712,2024-251B,2026-06-15T21:40:52.114080,15.30202824,.00010879,53.1576,239.2330,93.9348,266.1777,0,U,62433,999,8298,.40490527E-3,.11653E-3,0
STARLINK-32674,2024-251C,2026-06-15T22:20:13.305120,15.30196448,.00014262,53.1591,238.7013,66.5634,293.5517,0,U,62434,999,8299,.48845633E-3,.14133E-3,0
STARLINK-32711,2024-251D,2026-06-15T21:36:18.843840,15.30197182,.00011511,53.1576,239.2155,86.1022,274.0110,0,U,62435,999,8298,.39981137E-3,.11499E-3,0
STARLINK-32697,2024-251E,2026-06-15T11:53:45.473280,15.30188224,.00010293,53.1578,240.9587,86.6437,273.4681,0,U,62436,999,8292,.74550705E-3,.21777E-3,0
STARLINK-32693,2024-251F,2026-06-15T21:52:05.113920,15.30204873,.00008198,53.1608,236.3726,91.2126,268.8968,0,U,62437,999,8302,.4030622E-3,.11599E-3,0
STARLINK-32721,2024-251G,2026-06-16T00:00:02.999808,15.30179829,.00010489,53.1581,238.5308,82.9365,217.8556,0,U,62438,999,587,.1322608E-2,.38994E-3,0
STARLINK-32709,2024-251H,2026-06-15T21:32:12.749856,15.34392116,.00011381,53.1584,239.2008,88.4251,271.6882,0,U,62439,999,8298,.38066892E-3,.12504E-3,0
STARLINK-32689,2024-251J,2026-06-15T22:14:06.332352,15.30266777,.00010437,53.1589,238.6673,65.8569,294.2541,0,U,62440,999,8299,.10881683E-2,.32075E-3,0
STARLINK-32724,2024-251K,2026-06-16T00:00:02.999808,15.33517838,.00012252,53.1593,238.5226,75.7294,231.5972,0,U,62441,999,587,.12778315E-2,.41846E-3,0
STARLINK-32291,2024-251L,2026-06-15T11:58:19.008768,15.30184734,.00010955,53.1580,240.9764,93.2945,266.8181,0,U,62442,999,8261,.38572325E-3,.11077E-3,0
STARLINK-32736,2024-251M,2026-06-15T21:33:16.195104,15.30201095,.00005955,53.1569,239.2033,97.6201,262.4868,0,U,62443,999,8282,.43241604E-3,.1247E-3,0
STARLINK-32737,2024-251N,2026-06-15T11:37:47.928864,15.30194103,.00011506,53.1588,238.7532,81.3728,278.7403,0,U,62444,999,8295,.24606737E-3,.6934E-4,0
STARLINK-32683,2024-251P,2026-06-15T11:48:13.210848,15.34404586,.00011346,53.1594,240.9326,107.5644,252.5483,0,U,62445,999,8292,.29794627E-3,.9705E-4,0
STARLINK-32726,2024-251Q,2026-06-15T11:44:38.359968,15.30200652,.00012729,53.1592,240.9188,95.2801,264.8345,0,U,62446,999,8261,.44812128E-3,.12936E-3,0
STARLINK-32719,2024-251S,2026-06-16T00:00:02.999808,15.34337731,.00013427,53.1604,238.8923,52.6944,352.1763,0,U,62448,999,587,.20090553E-2,.67985E-3,0
STARLINK-32723,2024-251T,2026-06-16T00:00:02.999808,15.34375839,.00011919,53.1594,238.4645,90.2435,245.2070,0,U,62449,999,588,.10521671E-2,.35313E-3,0
STARLINK-32722,2024-251U,2026-06-15T11:40:04.611072,15.30199591,.00010535,53.1575,240.8924,115.4486,244.6624,0,U,62450,999,8255,.29353338E-3,.8344E-4,0
STARLINK-32720,2024-251V,2026-06-15T11:57:18.481248,15.34403257,.00006762,53.1587,240.9721,92.7014,267.4066,0,U,62451,999,8255,.31095782E-3,.10146E-3,0
STARLINK-32656,2024-251W,2026-06-15T16:41:43.722816,15.34437939,.00016448,53.1570,240.0685,71.5757,288.5424,0,U,62452,999,8279,.79039591E-3,.26455E-3,0
STARLINK-32690,2024-251X,2026-06-15T11:35:31.683840,15.30204886,.00012201,53.1590,240.8756,82.0981,278.0158,0,U,62453,999,8254,.46541319E-3,.13452E-3,0
STARLINK-11518 [DTC],2024-254A,2026-06-14T13:40:42.748608,15.70886721,.0001941,42.9998,359.4106,267.3270,92.7376,0,U,62462,999,8464,.11285E-2,.147241E-2,0
STARLINK-11455 [DTC],2024-254B,2026-06-14T19:54:36.174240,15.70907457,.00024607,42.9986,357.9183,256.0155,104.0439,0,U,62463,999,8467,.12542486E-2,.16418E-2,0
STARLINK-11178 [DTC],2024-254D,2026-06-14T19:31:39.976032,15.70862821,.00008311,42.9971,357.7935,270.0442,90.0330,0,U,62465,999,8451,.63329629E-3,.81692E-3,0
STARLINK-11506 [DTC],2024-254E,2026-06-15T18:55:27.754752,15.70989636,.0001733,43.0015,351.3185,127.7593,232.3432,0,U,62466,999,8467,.13122891E-2,.17256E-2,0
STARLINK-11486 [DTC],2024-254F,2026-06-14T19:39:18.646848,15.70909465,.00027604,42.9989,357.8318,261.4683,98.5872,0,U,62467,999,8467,.13912446E-2,.182589E-2,0
STARLINK-11511 [DTC],2024-254G,2026-06-15T19:33:41.238432,15.70942364,.00015429,42.9997,351.5269,246.2204,113.8502,0,U,62468,999,8483,.11521541E-2,.150747E-2,0
STARLINK-11505 [DTC],2024-254H,2026-06-15T19:18:23.887296,15.70887576,.00017641,42.9996,351.4424,264.6170,95.4497,0,U,62469,999,8482,.1170871E-2,.152891E-2,0
