STARLINK-32614          
1 62428U 24249V   26166.19153390  .00024126  00000+0  88312-3 0  9994
2 62428  42.9970 131.3564 0004179 286.3531  73.6861 15.27584216 82638
STARLINK-32418          
1 62429U 24249W   26166.56923521  .00016518  00000+0  60797-3 0  9990
2 62429  43.0035 121.2424 0000707 277.4794  82.5978 15.27605388 82789
STARLINK-32702          
1 62432U 24251A   26166.89007863  .00015809  00000+0  54478-3 0  9996
2 62432  53.1571 236.3138 0001152  99.2838 260.8293 15.30197556 83020
STARLINK-32712          
1 62433U 24251B   26166.90338095  .00011653  00000+0  40491-3 0  9996
2 62433  53.1576 239.2330 0001087  93.9348 266.1777 15.30202824 82981
STARLINK-32674          
1 62434U 24251C   26166.93070955  .00014133  00000+0  48846-3 0  9996
2 62434  53.1591 238.7013 0001426  66.5634 293.5517 15.30196448 82993
STARLINK-32711          
1 62435U 24251D   26166.90021810  .00011499  00000+0  39981-3 0  9992
2 62435  53.1576 239.2155 0001151  86.1022 274.0110 15.30197182 82982
STARLINK-32697          
1 62436U 24251E   26166.49566520  .00021777  00000+0  74551-3 0  9991
2 62436  53.1578 240.9587 0001029  86.6437 273.4681 15.30188224 82929
STARLINK-32693          
1 62437U 24251F   26166.91117030  .00011599  00000+0  40306-3 0  9999
2 62437  53.1608 236.3726 0000819  91.2126 268.8968 15.30204873 83028
STARLINK-32721          
1 62438U 24251G   26167.00003472  .00038994  00000+0  13226-2 0  9993
2 62438  53.1581 238.5308 0001048  82.9365 217.8556 15.30179829  5872
STARLINK-32709          
1 62439U 24251H   26166.89736979  .00012504  00000+0  38067-3 0  9995
2 62439  53.1584 239.2008 0001138  88.4251 271.6882 15.34392116 82983
STARLINK-32689          
1 62440U 24251J   26166.92646218  .00032075  00000+0  10882-2 0  9996
2 62440  53.1589 238.6673 0001043  65.8569 294.2541 15.30266777 82990
STARLINK-32724          
1 62441U 24251K   26167.00003472  .00041846  00000+0  12778-2 0  9998
2 62441  53.1593 238.5226 0001225  75.7294 231.5972 15.33517838  5870
STARLINK-32291          
1 62442U 24251L   26166.49883112  .00011077  00000+0  38572-3 0  9992
2 62442  53.1580 240.9764 0001095  93.2945 266.8181 15.30184734 82616
STARLINK-32736          
1 62443U 24251M   26166.89810411  .00012470  00000+0  43242-3 0  9997
2 62443  53.1569 239.2033 0000595  97.6201 262.4868 15.30201095 82828
STARLINK-32737          
1 62444U 24251N   26166.48458251  .00006934  00000+0  24607-3 0  9995
2 62444  53.1588 238.7532 0001150  81.3728 278.7403 15.30194103 82950
STARLINK-32683          
1 62445U 24251P   26166.49181957  .00009705  00000+0  29795-3 0  9995
2 62445  53.1594 240.9326 0001134 107.5644 252.5483 15.34404586 82922
STARLINK-32726          
1 62446U 24251Q   26166.48933287  .00012936  00000+0  44812-3 0  9993
2 62446  53.1592 240.9188 0001272  95.2801 264.8345 15.30200652 82611
STARLINK-32719          
1 62448U 24251S   26167.00003472  .00067985  00000+0  20091-2 0  9994
2 62448  53.1604 238.8923 0001342  52.6944 352.1763 15.34337731  5874
STARLINK-32723          
1 62449U 24251T   26167.00003472  .00035313  00000+0  10522-2 0  9993
2 62449  53.1594 238.4645 0001191  90.2435 245.2070 15.34375839  5880
STARLINK-32722          
1 62450U 24251U   26166.48616448  .00008344  00000+0  29353-3 0  9996
2 62450  53.1575 240.8924 0001053 115.4486 244.6624 15.30199591 82553
STARLINK-32720          
1 62451U 24251V   26166.49813057  .00010146  00000+0  31096-3 0  9993
2 62451  53.1587 240.9721 0000676  92.7014 267.4066 15.34403257 82551
STARLINK-32656          
1 62452U 24251W   26166.69564494  .00026455  00000+0  79040-3 0  9995
2 62452  53.1570 240.0685 0001644  71.5757 288.5424 15.34437939 82791
STARLINK-32690          
1 62453U 24251X   26166.48300560  .00013452  00000+0  46541-3 0  9998
2 62453  53.1590 240.8756 0001220  82.0981 278.0158 15.30204886 82547
STARLINK-11518 [DTC]    
1 62462U 24254A   26165.56993922  .00147241  00000+0  11285-2 0  9999
2 62462  42.9998 359.4106 0001941 267.3270  92.7376 15.70886721 84644
STARLINK-11455 [DTC]    
1 62463U 24254B   26165.82958535  .00164180  00000+0  12542-2 0  9998
2 62463  42.9986 357.9183 0002460 256.0155 104.0439 15.70907457 84674
STARLINK-11178 [DTC]    
1 62465U 24254D   26165.81365713  .00081692  00000+0  63330-3 0  9997
2 62465  42.9971 357.7935 0000831 270.0442  90.0330 15.70862821 84510
STARLINK-11506 [DTC]    
1 62466U 24254E   26166.78851568  .00172560  00000+0  13123-2 0  9992
2 62466  43.0015 351.3185 0001733 127.7593 232.3432 15.70989636 84671
STARLINK-11486 [DTC]    
1 62467U 24254F   26165.81896582  .00182589  00000+0  13912-2 0  9999
2 62467  42.9989 357.8318 0002760 261.4683  98.5872 15.70909465 84678
STARLINK-11511 [DTC]    
1 62468U 24254G   26166.81506063  .00150747  00000+0  11522-2 0  9999
2 62468  42.9997 351.5269 0001542 246.2204 113.8502 15.70942364 84835
STARLINK-11505 [DTC]    
1 62469U 24254H   26166.80444314  .00152891  00000+0  11709-2 0  9998
2 62469  42.9996 351.4424 0001764 264.6170  95.4497 15.70887576 84829
